{
  "type": "FeatureCollection",
  "features": [
    {
      "type": "Feature",
      "properties": {
        "norad_id": 28054,
        "name": "DMSP 5D-3 F16 (USA 172)",
        "group": "weather",
        "lat": -33.0386717153901,
        "lon": -170.8951285616858,
        "alt_km": 849.0217279484878,
        "timestamp": "2025-12-23T11:34:47.828239+00:00",
        "meta_object_name": "DMSP 5D-3 F16 (USA 172)",
        "meta_object_id": "2003-048A",
        "meta_epoch": "2025-12-23T02:30:30.483072",
        "meta_mean_motion": 14.14427803,
        "meta_eccentricity": 0.000626,
        "meta_inclination": 99.0038,
        "meta_ra_of_asc_node": 14.6427,
        "meta_arg_of_pericenter": 287.6711,
        "meta_mean_anomaly": 162.2249,
        "meta_ephemeris_type": 0,
        "meta_classification_type": "U",
        "meta_norad_cat_id": 28054,
        "meta_element_set_no": 999,
        "meta_rev_at_epoch": 14459,
        "meta_bstar": 8.3389e-05,
        "meta_mean_motion_dot": 1.14e-06,
        "meta_mean_motion_ddot": 0,
        "tle_line1": "1 28054U 03048A   25357.10451948  .00000114  00000+0  83389-4 0  9998",
        "tle_line2": "2 28054  99.0038  14.6427 0006260 287.6711 162.2249 14.14427803144593"
      },
      "geometry": {
        "type": "Point",
        "coordinates": [
          -170.8951285616858,
          -33.0386717153901
        ]
      }
    },
    {
      "type": "Feature",
      "properties": {
        "norad_id": 28912,
        "name": "METEOSAT-9 (MSG-2)",
        "group": "weather",
        "lat": -8.655450441182222,
        "lon": -49.578234854951944,
        "alt_km": 35556.44879835403,
        "timestamp": "2025-12-23T11:34:47.828288+00:00",
        "meta_object_name": "METEOSAT-9 (MSG-2)",
        "meta_object_id": "2005-049B",
        "meta_epoch": "2025-12-22T18:31:08.664384",
        "meta_mean_motion": 1.00267705,
        "meta_eccentricity": 0.00617708,
        "meta_inclination": 8.9523,
        "meta_ra_of_asc_node": 55.8676,
        "meta_arg_of_pericenter": 281.9132,
        "meta_mean_anomaly": 76.5371,
        "meta_ephemeris_type": 0,
        "meta_classification_type": "U",
        "meta_norad_cat_id": 28912,
        "meta_element_set_no": 999,
        "meta_rev_at_epoch": 522,
        "meta_bstar": 0,
        "meta_mean_motion_dot": 1.44e-06,
        "meta_mean_motion_ddot": 0,
        "tle_line1": "1 28912U 05049B   25356.77162806  .00000144  00000+0  00000+0 0  9995",
        "tle_line2": "2 28912   8.9523  55.8676 0061770 281.9132  76.5371  1.00267705  5221"
      },
      "geometry": {
        "type": "Point",
        "coordinates": [
          -49.578234854951944,
          -8.655450441182222
        ]
      }
    },
    {
      "type": "Feature",
      "properties": {
        "norad_id": 29522,
        "name": "DMSP 5D-3 F17 (USA 191)",
        "group": "weather",
        "lat": 7.08371002802194,
        "lon": -176.25687149046723,
        "alt_km": 837.8308011359877,
        "timestamp": "2025-12-23T11:34:47.828303+00:00",
        "meta_object_name": "DMSP 5D-3 F17 (USA 191)",
        "meta_object_id": "2006-050A",
        "meta_epoch": "2025-12-22T22:53:09.102048",
        "meta_mean_motion": 14.14923895,
        "meta_eccentricity": 0.00098416,
        "meta_inclination": 98.7391,
        "meta_ra_of_asc_node": 2.13,
        "meta_arg_of_pericenter": 194.2781,
        "meta_mean_anomaly": 165.8116,
        "meta_ephemeris_type": 0,
        "meta_classification_type": "U",
        "meta_norad_cat_id": 29522,
        "meta_element_set_no": 999,
        "meta_rev_at_epoch": 98749,
        "meta_bstar": 9.3286306e-05,
        "meta_mean_motion_dot": 1.37e-06,
        "meta_mean_motion_ddot": 0,
        "tle_line1": "1 29522U 06050A   25356.95357757  .00000137  00000+0  93286-4 0  9992",
        "tle_line2": "2 29522  98.7391   2.1300 0009841 194.2781 165.8116 14.14923895987490"
      },
      "geometry": {
        "type": "Point",
        "coordinates": [
          -176.25687149046723,
          7.08371002802194
        ]
      }
    },
    {
      "type": "Feature",
      "properties": {
        "norad_id": 32958,
        "name": "FENGYUN 3A",
        "group": "weather",
        "lat": 62.83428561457331,
        "lon": -80.51629607386008,
        "alt_km": 825.517984985936,
        "timestamp": "2025-12-23T11:34:47.828315+00:00",
        "meta_object_name": "FENGYUN 3A",
        "meta_object_id": "2008-026A",
        "meta_epoch": "2025-12-22T20:03:12.943008",
        "meta_mean_motion": 14.19517515,
        "meta_eccentricity": 0.00076474,
        "meta_inclination": 98.6712,
        "meta_ra_of_asc_node": 296.1503,
        "meta_arg_of_pericenter": 277.7214,
        "meta_mean_anomaly": 82.3094,
        "meta_ephemeris_type": 0,
        "meta_classification_type": "U",
        "meta_norad_cat_id": 32958,
        "meta_element_set_no": 999,
        "meta_rev_at_epoch": 91038,
        "meta_bstar": 5.9361681e-05,
        "meta_mean_motion_dot": 8.2e-07,
        "meta_mean_motion_ddot": 0,
        "tle_line1": "1 32958U 08026A   25356.83556647  .00000082  00000+0  59362-4 0  9996",
        "tle_line2": "2 32958  98.6712 296.1503 0007647 277.7214  82.3094 14.19517515910388"
      },
      "geometry": {
        "type": "Point",
        "coordinates": [
          -80.51629607386008,
          62.83428561457331
        ]
      }
    },
    {
      "type": "Feature",
      "properties": {
        "norad_id": 35491,
        "name": "GOES 14",
        "group": "weather",
        "lat": 1.1228025548664264,
        "lon": 149.42793874645585,
        "alt_km": 35836.354487271616,
        "timestamp": "2025-12-23T11:34:47.828328+00:00",
        "meta_object_name": "GOES 14",
        "meta_object_id": "2009-033A",
        "meta_epoch": "2025-12-23T03:38:04.696800",
        "meta_mean_motion": 1.00097009,
        "meta_eccentricity": 5.74e-05,
        "meta_inclination": 1.2292,
        "meta_ra_of_asc_node": 85.2996,
        "meta_arg_of_pericenter": 188.1101,
        "meta_mean_anomaly": 116.7364,
        "meta_ephemeris_type": 0,
        "meta_classification_type": "U",
        "meta_norad_cat_id": 35491,
        "meta_element_set_no": 999,
        "meta_rev_at_epoch": 482,
        "meta_bstar": 0,
        "meta_mean_motion_dot": 2.9e-07,
        "meta_mean_motion_ddot": 0,
        "tle_line1": "1 35491U 09033A   25357.15144325  .00000029  00000+0  00000+0 0  9993",
        "tle_line2": "2 35491   1.2292  85.2996 0000574 188.1101 116.7364  1.00097009  4823"
      },
      "geometry": {
        "type": "Point",
        "coordinates": [
          149.42793874645585,
          1.1228025548664264
        ]
      }
    },
    {
      "type": "Feature",
      "properties": {
        "norad_id": 35951,
        "name": "DMSP 5D-3 F18 (USA 210)",
        "group": "weather",
        "lat": 33.96193472208655,
        "lon": -32.21762304954213,
        "alt_km": 832.3437675433725,
        "timestamp": "2025-12-23T11:34:47.828338+00:00",
        "meta_object_name": "DMSP 5D-3 F18 (USA 210)",
        "meta_object_id": "2009-057A",
        "meta_epoch": "2025-12-23T02:55:53.256288",
        "meta_mean_motion": 14.14775935,
        "meta_eccentricity": 0.0011772,
        "meta_inclination": 98.8847,
        "meta_ra_of_asc_node": 333.4715,
        "meta_arg_of_pericenter": 35.3507,
        "meta_mean_anomaly": 324.8444,
        "meta_ephemeris_type": 0,
        "meta_classification_type": "U",
        "meta_norad_cat_id": 35951,
        "meta_element_set_no": 999,
        "meta_rev_at_epoch": 83469,
        "meta_bstar": 0.00016883,
        "meta_mean_motion_dot": 2.81e-06,
        "meta_mean_motion_ddot": 0,
        "tle_line1": "1 35951U 09057A   25357.12214417  .00000281  00000+0  16883-3 0  9997",
        "tle_line2": "2 35951  98.8847 333.4715 0011772  35.3507 324.8444 14.14775935834691"
      },
      "geometry": {
        "type": "Point",
        "coordinates": [
          -32.21762304954213,
          33.96193472208655
        ]
      }
    },
    {
      "type": "Feature",
      "properties": {
        "norad_id": 36411,
        "name": "EWS-G2 (GOES 15)",
        "group": "weather",
        "lat": -0.7519440245336187,
        "lon": -32.623712877832226,
        "alt_km": 35775.63529067846,
        "timestamp": "2025-12-23T11:34:47.828351+00:00",
        "meta_object_name": "EWS-G2 (GOES 15)",
        "meta_object_id": "2010-008A",
        "meta_epoch": "2025-12-23T03:09:06.251040",
        "meta_mean_motion": 1.00271098,
        "meta_eccentricity": 0.0005514,
        "meta_inclination": 0.8378,
        "meta_ra_of_asc_node": 86.0724,
        "meta_arg_of_pericenter": 178.4858,
        "meta_mean_anomaly": 296.0011,
        "meta_ephemeris_type": 0,
        "meta_classification_type": "U",
        "meta_norad_cat_id": 36411,
        "meta_element_set_no": 999,
        "meta_rev_at_epoch": 5787,
        "meta_bstar": 0,
        "meta_mean_motion_dot": 5.9e-07,
        "meta_mean_motion_ddot": 0,
        "tle_line1": "1 36411U 10008A   25357.13132235  .00000059  00000+0  00000+0 0  9998",
        "tle_line2": "2 36411   0.8378  86.0724 0005514 178.4858 296.0011  1.00271098 57870"
      },
      "geometry": {
        "type": "Point",
        "coordinates": [
          -32.623712877832226,
          -0.7519440245336187
        ]
      }
    }
  ]
}